NORAD_CAT_ID,OBJECT_NAME,OBJECT_TYPE,EPOCH,MEAN_MOTION,ECCENTRICITY,INCLINATION,RA_OF_ASC_NODE,ARG_OF_PERICENTER,MEAN_ANOMALY,BSTAR,MEAN_MOTION_DOT,MEAN_MOTION_DDOT,TLE_LINE0,TLE_LINE1,TLE_LINE2,SEMIMAJOR_AXIS,PERIOD,APOGEE,PERIGEE,DECAYED
54809.0,STARLINK-5414,PAYLOAD,2023-10-22 19:17:50,15.08835518,0.0001653,53.2179,329.2554,83.0759,277.0421,7.3698e-05,8.85e-06,0.0,0 STARLINK-5414,1 54809U 22175BD  23295.80405554  .00000885  00000-0  73698-4 0  9993,2 54809  53.2179 329.2554 0001653  83.0759 277.0421 15.08835518 48966,6917.894,95.438,540.903,538.616,0.0
54809.0,STARLINK-5414,PAYLOAD,2023-10-23 19:08:37,15.08837216,0.0001676,53.2185,324.7939,87.6686,272.4498,3.6464e-05,2.92e-06,0.0,0 STARLINK-5414,1 54809U 22175BD  23296.79765971  .00000292  00000-0  36464-4 0  9996,2 54809  53.2185 324.7939 0001676  87.6686 272.4498 15.08837216 49112,6917.889,95.438,540.913,538.594,0.0
54809.0,STARLINK-5414,PAYLOAD,2023-10-24 01:30:10,15.08841743,0.0001554,53.2178,323.6067,90.0403,270.0768,0.00016425,2.327e-05,0.0,0 STARLINK-5414,1 54809U 22175BD  23297.06261815  .00002327  00000-0  16425-3 0  9990,2 54809  53.2178 323.6067 0001554  90.0403 270.0768 15.08841743 46991,6917.875,95.437,540.815,538.665,0.0
54809.0,STARLINK-5414,PAYLOAD,2023-10-24 09:27:05,15.0884684,0.0001533,53.2174,322.1194,88.072,272.0448,0.00017531,2.504e-05,0.0,0 STARLINK-5414,1 54809U 22175BD  23297.39381570  .00002504  00000-0  17531-3 0  9993,2 54809  53.2174 322.1194 0001533  88.0720 272.0448 15.08846840 49205,6917.859,95.437,540.785,538.664,0.0
54809.0,STARLINK-5414,PAYLOAD,2023-10-25 07:42:29,15.08841295,0.0001402,53.2165,317.9558,75.8533,284.2615,-6.4107e-06,-3.9e-06,0.0,0 STARLINK-5414,1 54809U 22175BD  23298.32117130 -.00000390  00000-0 -64107-5 0  9992,2 54809  53.2165 317.9558 0001402  75.8533 284.2615 15.08841295 47187,6917.876,95.437,540.711,538.772,0.0
54809.0,STARLINK-5414,PAYLOAD,2023-10-26 10:44:02,15.08842418,0.0001538,53.216,312.8999,96.0983,264.0185,0.00013525,1.865e-05,0.0,0 STARLINK-5414,1 54809U 22175BD  23299.44725251  .00001865  00000-0  13525-3 0  9997,2 54809  53.2160 312.8999 0001538  96.0983 264.0185 15.08842418 47354,6917.873,95.437,540.802,538.674,0.0
54809.0,STARLINK-5414,PAYLOAD,2023-10-26 18:40:58,15.0884196,0.0001544,53.2157,311.4131,97.1446,262.9722,0.00024901,3.677e-05,0.0,0 STARLINK-5414,1 54809U 22175BD  23299.77845430  .00003677  00000-0  24901-3 0  9998,2 54809  53.2157 311.4131 0001544  97.1446 262.9722 15.08841960 49566,6917.874,95.437,540.808,538.671,0.0
54809.0,STARLINK-5414,PAYLOAD,2023-10-27 07:24:03,15.08854966,0.0001579,53.2156,309.0338,97.3828,262.7343,0.00082321,0.00012843,0.0,0 STARLINK-5414,1 54809U 22175BD  23300.30837403  .00012843  00000-0  82321-3 0  9996,2 54809  53.2156 309.0338 0001579  97.3828 262.7343 15.08854966 49647,6917.835,95.437,540.792,538.607,0.0
54809.0,STARLINK-5414,PAYLOAD,2023-10-27 23:17:55,15.08843299,0.0001537,53.2149,306.0597,92.4116,267.7052,0.0003071,4.603e-05,0.0,0 STARLINK-5414,1 54809U 22175BD  23300.97077781  .00004603  00000-0  30710-3 0  9994,2 54809  53.2149 306.0597 0001537  92.4116 267.7052 15.08843299 47583,6917.87,95.437,540.799,538.672,0.0
54809.0,STARLINK-5414,PAYLOAD,2023-10-28 10:25:37,15.08834529,0.000154,53.2153,303.9789,87.7318,272.385,4.4832e-05,4.25e-06,0.0,0 STARLINK-5414,1 54809U 22175BD  23301.43446180  .00000425  00000-0  44832-4 0  9998,2 54809  53.2153 303.9789 0001540  87.7318 272.3850 15.08834529 47654,6917.897,95.438,540.827,538.697,0.0
54809.0,STARLINK-5414,PAYLOAD,2023-10-28 16:47:10,15.08836498,0.0001535,53.2153,302.7889,87.2344,272.8824,9.6688e-05,1.251e-05,0.0,0 STARLINK-5414,1 54809U 22175BD  23301.69942278  .00001251  00000-0  96688-4 0  9999,2 54809  53.2153 302.7889 0001535  87.2344 272.8824 15.08836498 49857,6917.891,95.438,540.818,538.694,0.0
54809.0,STARLINK-5414,PAYLOAD,2023-10-29 07:05:37,15.08853875,0.0001539,53.2155,300.1129,88.5119,271.6049,0.00041538,6.331e-05,0.0,0 STARLINK-5414,1 54809U 22175BD  23302.29557730  .00006331  00000-0  41538-3 0  9998,2 54809  53.2155 300.1129 0001539  88.5119 271.6049 15.08853875 47780,6917.838,95.437,540.768,538.638,0.0
54809.0,STARLINK-5414,PAYLOAD,2023-10-29 16:37:57,15.08841927,0.0001582,53.2163,298.3293,94.3334,265.7839,0.00028893,4.314e-05,0.0,0 STARLINK-5414,1 54809U 22175BD  23302.69302119  .00004314  00000-0  28893-3 0  9999,2 54809  53.2163 298.3293 0001582  94.3334 265.7839 15.08841927 47844,6917.874,95.437,540.834,538.645,0.0
54809.0,STARLINK-5414,PAYLOAD,2023-10-29 22:59:29,15.0884258,0.0001697,53.2161,297.142,100.0778,260.0406,0.0002094,3.046e-05,0.0,0 STARLINK-5414,1 54809U 22175BD  23302.95798157  .00003046  00000-0  20940-3 0  9995,2 54809  53.2161 297.1420 0001697 100.0778 260.0406 15.08842580 50045,6917.873,95.437,540.911,538.564,0.0
54809.0,STARLINK-5414,PAYLOAD,2023-10-30 16:28:44,15.08841448,0.0001377,53.2153,293.8668,88.9293,271.1857,0.00010687,1.413e-05,0.0,0 STARLINK-5414,1 54809U 22175BD  23303.68662170  .00001413  00000-0  10687-3 0  9994,2 54809  53.2153 293.8668 0001377  88.9293 271.1857 15.08841448 47999,6917.876,95.437,540.694,538.788,0.0
54809.0,STARLINK-5414,PAYLOAD,2023-10-31 05:11:49,15.08830897,0.000187,53.2165,291.4885,90.3935,269.7271,-0.00010448,-1.95e-05,0.0,0 STARLINK-5414,1 54809U 22175BD  23304.21654918 -.00001950  00000-0 -10448-3 0  9998,2 54809  53.2165 291.4885 0001870  90.3935 269.7271 15.08830897 48074,6917.908,95.438,541.067,538.48,0.0
54809.0,STARLINK-5414,PAYLOAD,2023-10-31 08:22:36,15.08831365,0.0001856,53.2175,290.8911,82.6705,277.4498,-6.5771e-05,-1.334e-05,0.0,0 STARLINK-5414,1 54809U 22175BD  23304.34902949 -.00001334  00000-0 -65771-4 0  9998,2 54809  53.2175 290.8911 0001856  82.6705 277.4498 15.08831365 50252,6917.907,95.438,541.056,538.488,0.0
54809.0,STARLINK-5414,PAYLOAD,2023-10-31 16:19:31,15.08840224,0.0001875,53.2177,289.4061,89.5614,270.5593,-8.8048e-06,-4.28e-06,0.0,0 STARLINK-5414,1 54809U 22175BD  23304.68022768 -.00000428  00000-0 -88048-5 0  9993,2 54809  53.2177 289.4061 0001875  89.5614 270.5593 15.08840224 48149,6917.88,95.438,541.042,538.448,0.0
54809.0,STARLINK-5414,PAYLOAD,2023-11-01 06:37:59,15.08846861,0.0001571,53.2161,286.7313,94.8668,265.2504,0.0003492,5.275e-05,0.0,0 STARLINK-5414,1 54809U 22175BD  23305.27638679  .00005275  00000-0  34920-3 0  9994,2 54809  53.2161 286.7313 0001571  94.8668 265.2504 15.08846861 50399,6917.859,95.437,540.811,538.638,0.0
54809.0,STARLINK-5414,PAYLOAD,2023-11-01 22:31:51,15.08840398,0.000172,53.2173,283.7569,88.4153,271.7036,0.00020713,3.01e-05,0.0,0 STARLINK-5414,1 54809U 22175BD  23305.93879090  .00003010  00000-0  20713-3 0  9991,2 54809  53.2173 283.7569 0001720  88.4153 271.7036 15.08840398 50498,6917.879,95.438,540.934,538.554,0.0
54809.0,STARLINK-5414,PAYLOAD,2023-11-02 04:53:23,15.08848518,0.0001712,53.217,282.5676,90.5507,269.5682,0.00026598,3.949e-05,0.0,0 STARLINK-5414,1 54809U 22175BD  23306.20374731  .00003949  00000-0  26598-3 0  9992,2 54809  53.2170 282.5676 0001712  90.5507 269.5682 15.08848518 48377,6917.854,95.437,540.904,538.535,0.0
54809.0,STARLINK-5414,PAYLOAD,2023-11-02 08:04:09,15.08852984,0.0001785,53.2173,281.972,92.3352,267.7845,0.00034134,5.15e-05,0.0,0 STARLINK-5414,1 54809U 22175BD  23306.33622485  .00005150  00000-0  34134-3 0  9999,2 54809  53.2173 281.9720 0001785  92.3352 267.7845 15.08852984 50557,6917.841,95.437,540.941,538.471,0.0
54809.0,STARLINK-5414,PAYLOAD,2023-11-02 16:01:05,15.08844172,0.0001939,53.2187,280.4828,98.7666,261.3546,0.00014416,2.007e-05,0.0,0 STARLINK-5414,1 54809U 22175BD  23306.66742750  .00002007  00000-0  14416-3 0  9992,2 54809  53.2187 280.4828 0001939  98.7666 261.3546 15.08844172 50608,6917.868,95.437,541.074,538.391,0.0
54809.0,STARLINK-5414,PAYLOAD,2023-11-03 04:44:10,15.08851184,0.0001692,53.217,278.1057,102.8595,257.2587,0.00018718,2.693e-05,0.0,0 STARLINK-5414,1 54809U 22175BD  23307.19734300  .00002693  00000-0  18718-3 0  9993,2 54809  53.2170 278.1057 0001692 102.8595 257.2587 15.08851184 48520,6917.846,95.437,540.882,538.541,0.0
54809.0,STARLINK-5414,PAYLOAD,2023-11-03 22:13:25,15.08843905,0.0001819,53.2168,274.8348,100.0582,260.0616,0.00013458,1.855e-05,0.0,0 STARLINK-5414,1 54809U 22175BD  23307.92598721  .00001855  00000-0  13458-3 0  9994,2 54809  53.2168 274.8348 0001819 100.0582 260.0616 15.08843905 50799,6917.868,95.437,540.992,538.475,0.0
54809.0,STARLINK-5414,PAYLOAD,2023-11-04 02:59:34,15.08845538,0.0001682,53.217,273.9429,109.7197,250.3977,0.0002054,2.983e-05,0.0,0 STARLINK-5414,1 54809U 22175BD  23308.12470582  .00002983  00000-0  20540-3 0  9994,2 54809  53.2170 273.9429 0001682 109.7197 250.3977 15.08845538 48667,6917.863,95.437,540.892,538.565,0.0
54809.0,STARLINK-5414,PAYLOAD,2023-11-04 07:45:43,15.08847529,0.0001718,53.2166,273.0502,99.8401,260.2785,0.00027726,4.128e-05,0.0,0 STARLINK-5414,1 54809U 22175BD  23308.32342591  .00004128  00000-0  27726-3 0  9990,2 54809  53.2166 273.0502 0001718  99.8401 260.2785 15.08847529 50855,6917.857,95.437,540.911,538.534,0.0
54809.0,STARLINK-5414,PAYLOAD,2023-11-05 04:25:44,15.0884836,0.0001446,53.2164,269.1872,90.9003,269.2155,0.00030187,4.521e-05,0.0,0 STARLINK-5414,1 54809U 22175BD  23309.18454782  .00004521  00000-0  30187-3 0  9993,2 54809  53.2164 269.1872 0001446  90.9003 269.2155 15.08848360 48825,6917.855,95.437,540.72,538.72,0.0
54809.0,STARLINK-5414,PAYLOAD,2023-11-05 13:58:03,15.08850435,0.0001269,53.2154,267.3993,80.1246,279.9889,0.0005289,8.142e-05,0.0,0 STARLINK-5414,1 54809U 22175BD  23309.58198676  .00008142  00000-0  52890-3 0  9992,2 54809  53.2154 267.3993 0001269  80.1246 279.9889 15.08850435 51047,6917.848,95.437,540.591,538.836,0.0
54809.0,STARLINK-5414,PAYLOAD,2023-11-06 04:16:29,15.08896978,0.00014,53.2157,264.7231,98.2606,261.8545,0.0012426,0.00019574,0.0,0 STARLINK-5414,1 54809U 22175BD  23310.17812324  .00019574  00000-0  12426-2 0  9993,2 54809  53.2157 264.7231 0001400  98.2606 261.8545 15.08896978 48972,6917.706,95.434,540.54,538.603,0.0
